{
  "type": "FeatureCollection",
  "features": [
    {
      "type": "Feature",
      "properties": {
        "norad_id": 41890,
        "name": "CYGFM07",
        "group": "weather",
        "lat": 2.377445858491255,
        "lon": -103.80282949982819,
        "alt_km": 412.4086099252927,
        "timestamp": "2025-12-03T20:47:57.859212+00:00",
        "meta_object_name": "CYGFM07",
        "meta_object_id": "2016-078G",
        "meta_epoch": "2025-12-03T09:13:15.178080",
        "meta_mean_motion": 15.49410837,
        "meta_eccentricity": 0.0008979,
        "meta_inclination": 34.947,
        "meta_ra_of_asc_node": 82.7659,
        "meta_arg_of_pericenter": 129.2524,
        "meta_mean_anomaly": 230.8996,
        "meta_ephemeris_type": 0,
        "meta_classification_type": "U",
        "meta_norad_cat_id": 41890,
        "meta_element_set_no": 999,
        "meta_rev_at_epoch": 49850,
        "meta_bstar": 0.0004951,
        "meta_mean_motion_dot": 0.00028126,
        "meta_mean_motion_ddot": 0,
        "tle_line1": "1 41890U 16078G   25337.38420345  .00028126  00000+0  49510-3 0  9993",
        "tle_line2": "2 41890  34.9470  82.7659 0008979 129.2524 230.8996 15.49410837498501"
      },
      "geometry": {
        "type": "Point",
        "coordinates": [
          -103.80282949982819,
          2.377445858491255
        ]
      }
    },
    {
      "type": "Feature",
      "properties": {
        "norad_id": 41891,
        "name": "CYGFM03",
        "group": "weather",
        "lat": 7.627654071254901,
        "lon": 92.57598489795035,
        "alt_km": 418.1457792823803,
        "timestamp": "2025-12-03T20:47:57.859224+00:00",
        "meta_object_name": "CYGFM03",
        "meta_object_id": "2016-078H",
        "meta_epoch": "2025-12-03T11:27:47.341728",
        "meta_mean_motion": 15.49320837,
        "meta_eccentricity": 0.0008312,
        "meta_inclination": 34.9425,
        "meta_ra_of_asc_node": 84.066,
        "meta_arg_of_pericenter": 116.9629,
        "meta_mean_anomaly": 243.1943,
        "meta_ephemeris_type": 0,
        "meta_classification_type": "U",
        "meta_norad_cat_id": 41891,
        "meta_element_set_no": 999,
        "meta_rev_at_epoch": 49849,
        "meta_bstar": 0.00050884,
        "meta_mean_motion_dot": 0.00028812,
        "meta_mean_motion_ddot": 0,
        "tle_line1": "1 41891U 16078H   25337.47763127  .00028812  00000+0  50884-3 0  9990",
        "tle_line2": "2 41891  34.9425  84.0660 0008312 116.9629 243.1943 15.49320837498496"
      },
      "geometry": {
        "type": "Point",
        "coordinates": [
          92.57598489795035,
          7.627654071254901
        ]
      }
    },
    {
      "type": "Feature",
      "properties": {
        "norad_id": 43010,
        "name": "FENGYUN 3D",
        "group": "weather",
        "lat": 43.046010328438896,
        "lon": -64.45649722573486,
        "alt_km": 823.2469208492548,
        "timestamp": "2025-12-03T20:47:57.859236+00:00",
        "meta_object_name": "FENGYUN 3D",
        "meta_object_id": "2017-072A",
        "meta_epoch": "2025-12-03T12:08:12.576768",
        "meta_mean_motion": 14.19679382,
        "meta_eccentricity": 6.03e-05,
        "meta_inclination": 98.988,
        "meta_ra_of_asc_node": 303.6783,
        "meta_arg_of_pericenter": 220.3934,
        "meta_mean_anomaly": 139.7197,
        "meta_ephemeris_type": 0,
        "meta_classification_type": "U",
        "meta_norad_cat_id": 43010,
        "meta_element_set_no": 999,
        "meta_rev_at_epoch": 41722,
        "meta_bstar": 0.00010002,
        "meta_mean_motion_dot": 1.65e-06,
        "meta_mean_motion_ddot": 0,
        "tle_line1": "1 43010U 17072A   25337.50570112  .00000165  00000+0  10002-3 0  9993",
        "tle_line2": "2 43010  98.9880 303.6783 0000603 220.3934 139.7197 14.19679382417227"
      },
      "geometry": {
        "type": "Point",
        "coordinates": [
          -64.45649722573486,
          43.046010328438896
        ]
      }
    },
    {
      "type": "Feature",
      "properties": {
        "norad_id": 43013,
        "name": "NOAA 20 (JPSS-1)",
        "group": "weather",
        "lat": -21.223714076847457,
        "lon": 90.82856033707293,
        "alt_km": 832.4995736676465,
        "timestamp": "2025-12-03T20:47:57.859248+00:00",
        "meta_object_name": "NOAA 20 (JPSS-1)",
        "meta_object_id": "2017-073A",
        "meta_epoch": "2025-12-03T11:23:44.168928",
        "meta_mean_motion": 14.1952166,
        "meta_eccentricity": 0.0002065,
        "meta_inclination": 98.7585,
        "meta_ra_of_asc_node": 273.8735,
        "meta_arg_of_pericenter": 100.5461,
        "meta_mean_anomaly": 259.5948,
        "meta_ephemeris_type": 0,
        "meta_classification_type": "U",
        "meta_norad_cat_id": 43013,
        "meta_element_set_no": 999,
        "meta_rev_at_epoch": 41670,
        "meta_bstar": 8.2448e-05,
        "meta_mean_motion_dot": 1.3e-06,
        "meta_mean_motion_ddot": 0,
        "tle_line1": "1 43013U 17073A   25337.47481677  .00000130  00000+0  82448-4 0  9996",
        "tle_line2": "2 43013  98.7585 273.8735 0002065 100.5461 259.5948 14.19521660416705"
      },
      "geometry": {
        "type": "Point",
        "coordinates": [
          90.82856033707293,
          -21.223714076847457
        ]
      }
    },
    {
      "type": "Feature",
      "properties": {
        "norad_id": 43226,
        "name": "GOES 17",
        "group": "weather",
        "lat": -0.20284102200293708,
        "lon": -64.5664655722491,
        "alt_km": 35773.12293697286,
        "timestamp": "2025-12-03T20:47:57.859278+00:00",
        "meta_object_name": "GOES 17",
        "meta_object_id": "2018-022A",
        "meta_epoch": "2025-12-03T09:54:20.348064",
        "meta_mean_motion": 1.00271349,
        "meta_eccentricity": 0.000342,
        "meta_inclination": 0.4337,
        "meta_ra_of_asc_node": 89.3258,
        "meta_arg_of_pericenter": 181.4475,
        "meta_mean_anomaly": 220.8145,
        "meta_ephemeris_type": 0,
        "meta_classification_type": "U",
        "meta_norad_cat_id": 43226,
        "meta_element_set_no": 999,
        "meta_rev_at_epoch": 2846,
        "meta_bstar": 0,
        "meta_mean_motion_dot": -1.64e-06,
        "meta_mean_motion_ddot": 0,
        "tle_line1": "1 43226U 18022A   25337.41273551 -.00000164  00000+0  00000+0 0  9998",
        "tle_line2": "2 43226   0.4337  89.3258 0003420 181.4475 220.8145  1.00271349 28469"
      },
      "geometry": {
        "type": "Point",
        "coordinates": [
          -64.5664655722491,
          -0.20284102200293708
        ]
      }
    },
    {
      "type": "Feature",
      "properties": {
        "norad_id": 43491,
        "name": "FENGYUN 2H",
        "group": "weather",
        "lat": 0.997244618065165,
        "lon": 104.23713794367949,
        "alt_km": 35795.459104546775,
        "timestamp": "2025-12-03T20:47:57.859307+00:00",
        "meta_object_name": "FENGYUN 2H",
        "meta_object_id": "2018-050A",
        "meta_epoch": "2025-12-03T10:42:30.732192",
        "meta_mean_motion": 1.00271409,
        "meta_eccentricity": 0.0002903,
        "meta_inclination": 2.5249,
        "meta_ra_of_asc_node": 81.4326,
        "meta_arg_of_pericenter": 162.4814,
        "meta_mean_anomaly": 68.6085,
        "meta_ephemeris_type": 0,
        "meta_classification_type": "U",
        "meta_norad_cat_id": 43491,
        "meta_element_set_no": 999,
        "meta_rev_at_epoch": 2747,
        "meta_bstar": 0,
        "meta_mean_motion_dot": -1.12e-06,
        "meta_mean_motion_ddot": 0,
        "tle_line1": "1 43491U 18050A   25337.44618903 -.00000112  00000+0  00000+0 0  9993",
        "tle_line2": "2 43491   2.5249  81.4326 0002903 162.4814  68.6085  1.00271409 27476"
      },
      "geometry": {
        "type": "Point",
        "coordinates": [
          104.23713794367949,
          0.997244618065165
        ]
      }
    },
    {
      "type": "Feature",
      "properties": {
        "norad_id": 43689,
        "name": "METOP-C",
        "group": "weather",
        "lat": -77.32605901471497,
        "lon": 78.64917343491916,
        "alt_km": 828.4720737992875,
        "timestamp": "2025-12-03T20:47:57.859332+00:00",
        "meta_object_name": "METOP-C",
        "meta_object_id": "2018-087A",
        "meta_epoch": "2025-12-03T11:02:34.667808",
        "meta_mean_motion": 14.21506139,
        "meta_eccentricity": 0.0001703,
        "meta_inclination": 98.6943,
        "meta_ra_of_asc_node": 35.3713,
        "meta_arg_of_pericenter": 57.4765,
        "meta_mean_anomaly": 302.6577,
        "meta_ephemeris_type": 0,
        "meta_classification_type": "U",
        "meta_norad_cat_id": 43689,
        "meta_element_set_no": 999,
        "meta_rev_at_epoch": 36702,
        "meta_bstar": 0.00012447,
        "meta_mean_motion_dot": 2.29e-06,
        "meta_mean_motion_ddot": 0,
        "tle_line1": "1 43689U 18087A   25337.46012347  .00000229  00000+0  12447-3 0  9994",
        "tle_line2": "2 43689  98.6943  35.3713 0001703  57.4765 302.6577 14.21506139367028"
      },
      "geometry": {
        "type": "Point",
        "coordinates": [
          78.64917343491916,
          -77.32605901471497
        ]
      }
    }
  ]
}